{
  "type": "FeatureCollection",
  "features": [
    {
      "type": "Feature",
      "properties": {},
      "geometry": {
        "coordinates": [
          [
            [
              -120.20897084173102,
              36.81717709888788
            ],
            [
              -120.20897084173102,
              36.56588907405272
            ],
            [
              -119.85589860484676,
              36.56588907405272
            ],
            [
              -119.85589860484676,
              36.81717709888788
            ],
            [
              -120.20897084173102,
              36.81717709888788
            ]
          ]
        ],
        "type": "Polygon"
      }
    }
  ]
}