{
  "type": "FeatureCollection",
  "features": [
    {
      "type": "Feature",
      "properties": {},
      "geometry": {
        "coordinates": [
          [
            [
              -102.94010674504281,
              34.26149939711554
            ],
            [
              -102.94010674504281,
              33.99781352593344
            ],
            [
              -102.58448217091625,
              33.99781352593344
            ],
            [
              -102.58448217091625,
              34.26149939711554
            ],
            [
              -102.94010674504281,
              34.26149939711554
            ]
          ]
        ],
        "type": "Polygon"
      }
    }
  ]
}